ONEWEB-0607             
1 54671U 22166AF  24260.85354857  .00000083  00000+0  16837-3 0  9997
2 54671  87.9359  11.0657 0001547  95.3704 264.7606 13.21826220 87217
ONEWEB-0608             
1 54672U 22166AG  24260.85985285  .00000185  00000+0  41638-3 0  9993
2 54672  87.9363  11.0911 0001447  83.5195 276.6104 13.21828266 87226
ONEWEB-0610             
1 54673U 22166AH  24260.84091534 -.00001168  00000+0 -28597-2 0  9990
2 54673  87.9359  11.0852 0001403  86.7971 273.3324 13.21835350 87124
ONEWEB-0611             
1 54674U 22166AJ  24260.83461229  .00001038  00000+0  24828-2 0  9999
2 54674  87.9361  11.0850 0002025 107.6643 252.4712 13.21823169 87119
ONEWEB-0612             
1 54675U 22166AK  24260.84723920  .00000106  00000+0  22486-3 0  9994
2 54675  87.9357  11.0640 0001590  92.4255 267.7061 13.21827368 87108
ONEWEB-0615             
1 54676U 22166AL  24260.82829222 -.00000893  00000+0 -21933-2 0  9995
2 54676  87.9359  11.0925 0001254 107.7936 252.3334 13.21830463 87114
ONEWEB-0655             
1 54677U 22166AM  24260.80150589  .00000066  00000+0  12831-3 0  9995
2 54677  87.9359  11.1005 0001368 108.6456 251.4827 13.21826760 87109
ONEWEB-0659             
1 54678U 22166AN  24260.81884902  .00000090  00000+0  18698-3 0  9994
2 54678  87.9358  11.1024 0001979 100.7093 259.4264 13.21825358 87192
